start=new Date('2022-02-12T00:00:00.000Z').valueOf();
sats=[{"BSTAR":"0.00003492400000","COUNTRY_CODE":"US","REV_AT_EPOCH":"5931","RA_OF_ASC_NODE":"227.6180","PERIOD":"95.592","DECAY_DATE":null,"MEAN_ELEMENT_THEORY":"SGP4","ELEMENT_SET_NO":"999","GP_ID":"195752059","MEAN_MOTION_DDOT":"0.0000000000000","INCLINATION":"53.0548","TLE_LINE2":"2 47361  53.0548 227.6180 0001728  67.4833 292.6339 15.06396979 59310","MEAN_MOTION_DOT":"0.00000239","SITE":"AFETR","CENTER_NAME":"EARTH","SEMIMAJOR_AXIS":"6925.358","TIME_SYSTEM":"UTC","ARG_OF_PERICENTER":"67.4833","MEAN_MOTION":"15.06396979","REF_FRAME":"TEME","APOAPSIS":"548.420","OBJECT_TYPE":"PAYLOAD","OBJECT_ID":"2021-005N","FILE":"3297735","LAUNCH_DATE":"2021-01-20","TLE_LINE1":"1 47361U 21005N   22042.55515310  .00000239  00000-0  34924-4 0  9994","EPHEMERIS_TYPE":"0","RCS_SIZE":"LARGE","NORAD_CAT_ID":"47361","CLASSIFICATION_TYPE":"U","MEAN_ANOMALY":"292.6339","EPOCH":"2022-02-11T13:19:25.227840","ECCENTRICITY":"0.00017280","PERIAPSIS":"546.026","OBJECT_NAME":"STARLINK-2071"},{"REF_FRAME":"TEME","MEAN_MOTION":"15.06419819","FILE":"3297834","OBJECT_ID":"2021-005P","OBJECT_TYPE":"PAYLOAD","APOAPSIS":"548.379","CLASSIFICATION_TYPE":"U","NORAD_CAT_ID":"47362","EPHEMERIS_TYPE":"0","RCS_SIZE":"LARGE","LAUNCH_DATE":"2021-01-20","TLE_LINE1":"1 47362U 21005P   22042.79935587  .00005038  00000-0  35668-3 0  9990","ECCENTRICITY":"0.00017710","PERIAPSIS":"545.926","OBJECT_NAME":"STARLINK-2076","EPOCH":"2022-02-11T19:11:04.347168","MEAN_ANOMALY":"288.7527","REV_AT_EPOCH":"5893","COUNTRY_CODE":"US","BSTAR":"0.00035668000000","GP_ID":"195758831","ELEMENT_SET_NO":"999","MEAN_ELEMENT_THEORY":"SGP4","PERIOD":"95.591","DECAY_DATE":null,"RA_OF_ASC_NODE":"256.5321","SITE":"AFETR","MEAN_MOTION_DOT":"0.00005038","TLE_LINE2":"2 47362  53.0531 256.5321 0001771  71.3654 288.7527 15.06419819 58935","INCLINATION":"53.0531","MEAN_MOTION_DDOT":"0.0000000000000","ARG_OF_PERICENTER":"71.3654","TIME_SYSTEM":"UTC","CENTER_NAME":"EARTH","SEMIMAJOR_AXIS":"6925.288"},{"TLE_LINE1":"1 47363U 21005Q   22042.80301527  .00000341  00000-0  41787-4 0  9996","LAUNCH_DATE":"2021-01-20","EPHEMERIS_TYPE":"0","RCS_SIZE":"LARGE","CLASSIFICATION_TYPE":"U","NORAD_CAT_ID":"47363","PERIAPSIS":"546.163","OBJECT_NAME":"STARLINK-2077","ECCENTRICITY":"0.00014650","EPOCH":"2022-02-11T19:16:20.519328","MEAN_ANOMALY":"289.7306","MEAN_MOTION":"15.06411764","REF_FRAME":"TEME","APOAPSIS":"548.192","FILE":"3297834","OBJECT_ID":"2021-005Q","OBJECT_TYPE":"PAYLOAD","MEAN_MOTION_DDOT":"0.0000000000000","INCLINATION":"53.0532","TLE_LINE2":"2 47363  53.0532 256.5053 0001465  70.3841 289.7306 15.06411764 58933","SITE":"AFETR","MEAN_MOTION_DOT":"0.00000341","SEMIMAJOR_AXIS":"6925.313","CENTER_NAME":"EARTH","ARG_OF_PERICENTER":"70.3841","TIME_SYSTEM":"UTC","BSTAR":"0.00004178700000","REV_AT_EPOCH":"5893","COUNTRY_CODE":"US","DECAY_DATE":null,"PERIOD":"95.591","RA_OF_ASC_NODE":"256.5053","MEAN_ELEMENT_THEORY":"SGP4","GP_ID":"195758823","ELEMENT_SET_NO":"999"},{"TLE_LINE2":"2 47365  53.0412  98.8405 0008265 280.8712  79.1377 15.76813413 61779","MEAN_MOTION_DOT":"0.00037061","SITE":"AFETR","MEAN_MOTION_DDOT":"0.0000000000000","INCLINATION":"53.0412","TIME_SYSTEM":"UTC","ARG_OF_PERICENTER":"280.8712","CENTER_NAME":"EARTH","SEMIMAJOR_AXIS":"6717.613","REV_AT_EPOCH":"6177","COUNTRY_CODE":"US","BSTAR":"0.00022815000000","MEAN_ELEMENT_THEORY":"SGP4","ELEMENT_SET_NO":"999","GP_ID":"195729917","RA_OF_ASC_NODE":"98.8405","PERIOD":"91.323","DECAY_DATE":null,"RCS_SIZE":"LARGE","EPHEMERIS_TYPE":"0","NORAD_CAT_ID":"47365","CLASSIFICATION_TYPE":"U","LAUNCH_DATE":"2021-01-20","TLE_LINE1":"1 47365U 21005S   22042.50757292  .00037061  00000-0  22815-3 0  9998","MEAN_ANOMALY":"79.1377","EPOCH":"2022-02-11T12:10:54.300288","ECCENTRICITY":"0.00082650","PERIAPSIS":"333.926","OBJECT_NAME":"STARLINK-2080","REF_FRAME":"TEME","MEAN_MOTION":"15.76813413","OBJECT_ID":"2021-005S","OBJECT_TYPE":"PAYLOAD","FILE":"3297678","APOAPSIS":"345.030"},{"TIME_SYSTEM":"UTC","ARG_OF_PERICENTER":"62.5381","CENTER_NAME":"EARTH","SEMIMAJOR_AXIS":"6925.296","TLE_LINE2":"2 47366  53.0528 257.5961 0001841  62.5381 297.5795 15.06417256 58896","MEAN_MOTION_DOT":"0.00004397","SITE":"AFETR","MEAN_MOTION_DDOT":"0.0000000000000","INCLINATION":"53.0528","MEAN_ELEMENT_THEORY":"SGP4","ELEMENT_SET_NO":"999","GP_ID":"195729177","RA_OF_ASC_NODE":"257.5961","PERIOD":"95.591","DECAY_DATE":null,"COUNTRY_CODE":"US","REV_AT_EPOCH":"5889","BSTAR":"0.00031378000000","MEAN_ANOMALY":"297.5795","EPOCH":"2022-02-11T13:31:22.372896","ECCENTRICITY":"0.00018410","PERIAPSIS":"545.886","OBJECT_NAME":"STARLINK-2081","RCS_SIZE":"LARGE","EPHEMERIS_TYPE":"0","NORAD_CAT_ID":"47366","CLASSIFICATION_TYPE":"U","LAUNCH_DATE":"2021-01-20","TLE_LINE1":"1 47366U 21005T   22042.56345339  .00004397  00000-0  31378-3 0  9990","OBJECT_TYPE":"PAYLOAD","OBJECT_ID":"2021-005T","FILE":"3297644","APOAPSIS":"548.436","REF_FRAME":"TEME","MEAN_MOTION":"15.06417256"},{"REV_AT_EPOCH":"5894","COUNTRY_CODE":"US","BSTAR":"0.00005912700000","GP_ID":"195758347","ELEMENT_SET_NO":"999","MEAN_ELEMENT_THEORY":"SGP4","DECAY_DATE":null,"PERIOD":"95.592","RA_OF_ASC_NODE":"256.2937","SITE":"AFETR","MEAN_MOTION_DOT":"0.00000599","TLE_LINE2":"2 47367  53.0541 256.2937 0001706  64.8831 295.2335 15.06399924 58948","INCLINATION":"53.0541","MEAN_MOTION_DDOT":"0.0000000000000","ARG_OF_PERICENTER":"64.8831","TIME_SYSTEM":"UTC","SEMIMAJOR_AXIS":"6925.349","CENTER_NAME":"EARTH","REF_FRAME":"TEME","MEAN_MOTION":"15.06399924","FILE":"3297858","OBJECT_TYPE":"PAYLOAD","OBJECT_ID":"2021-005U","APOAPSIS":"548.395","CLASSIFICATION_TYPE":"U","NORAD_CAT_ID":"47367","RCS_SIZE":"LARGE","EPHEMERIS_TYPE":"0","TLE_LINE1":"1 47367U 21005U   22042.85462674  .00000599  00000-0  59127-4 0  9998","LAUNCH_DATE":"2021-01-20","PERIAPSIS":"546.032","ECCENTRICITY":"0.00017060","OBJECT_NAME":"STARLINK-2082","EPOCH":"2022-02-11T20:30:39.750336","MEAN_ANOMALY":"295.2335"},{"RA_OF_ASC_NODE":"258.6926","PERIOD":"95.592","DECAY_DATE":null,"MEAN_ELEMENT_THEORY":"SGP4","ELEMENT_SET_NO":"999","GP_ID":"195753061","BSTAR":"0.00007682100000","REV_AT_EPOCH":"5886","COUNTRY_CODE":"US","CENTER_NAME":"EARTH","SEMIMAJOR_AXIS":"6925.334","TIME_SYSTEM":"UTC","ARG_OF_PERICENTER":"69.6900","MEAN_MOTION_DDOT":"0.0000000000000","INCLINATION":"53.0536","TLE_LINE2":"2 47368  53.0536 258.6926 0001772  69.6900 290.4280 15.06404760 58862","MEAN_MOTION_DOT":"0.00000863","SITE":"AFETR","APOAPSIS":"548.426","OBJECT_ID":"2021-005V","OBJECT_TYPE":"PAYLOAD","FILE":"3297735","MEAN_MOTION":"15.06404760","REF_FRAME":"TEME","MEAN_ANOMALY":"290.4280","EPOCH":"2022-02-11T07:35:44.577024","ECCENTRICITY":"0.00017720","PERIAPSIS":"545.972","OBJECT_NAME":"STARLINK-2084","TLE_LINE1":"1 47368U 21005V   22042.31648816  .00000863  00000-0  76821-4 0  9998","LAUNCH_DATE":"2021-01-20","RCS_SIZE":"LARGE","EPHEMERIS_TYPE":"0","NORAD_CAT_ID":"47368","CLASSIFICATION_TYPE":"U"},{"RA_OF_ASC_NODE":"236.5978","PERIOD":"95.592","DECAY_DATE":null,"ELEMENT_SET_NO":"999","GP_ID":"195760479","MEAN_ELEMENT_THEORY":"SGP4","BSTAR":"0.00017454000000","REV_AT_EPOCH":"6017","COUNTRY_CODE":"US","CENTER_NAME":"EARTH","SEMIMAJOR_AXIS":"6925.333","TIME_SYSTEM":"UTC","ARG_OF_PERICENTER":"71.7403","INCLINATION":"53.0545","MEAN_MOTION_DDOT":"0.0000000000000","MEAN_MOTION_DOT":"0.00002319","SITE":"AFETR","TLE_LINE2":"2 47369  53.0545 236.5978 0001714  71.7403 288.3772 15.06405017 60178","APOAPSIS":"548.385","OBJECT_ID":"2021-005W","OBJECT_TYPE":"PAYLOAD","FILE":"3297907","MEAN_MOTION":"15.06405017","REF_FRAME":"TEME","MEAN_ANOMALY":"288.3772","EPOCH":"2022-02-11T18:52:30.752256","PERIAPSIS":"546.011","OBJECT_NAME":"STARLINK-2085","ECCENTRICITY":"0.00017140","TLE_LINE1":"1 47369U 21005W   22042.78646704  .00002319  00000-0  17454-3 0  9998","LAUNCH_DATE":"2021-01-20","NORAD_CAT_ID":"47369","CLASSIFICATION_TYPE":"U","RCS_SIZE":"LARGE","EPHEMERIS_TYPE":"0"},{"APOAPSIS":"548.364","FILE":"3297835","OBJECT_ID":"2021-005X","OBJECT_TYPE":"PAYLOAD","MEAN_MOTION":"15.06405206","REF_FRAME":"TEME","ECCENTRICITY":"0.00016840","PERIAPSIS":"546.031","OBJECT_NAME":"STARLINK-2086","MEAN_ANOMALY":"297.3848","EPOCH":"2022-02-11T17:51:25.921728","TLE_LINE1":"1 47370U 21005X   22042.74405002  .00000926  00000-0  81082-4 0  9991","LAUNCH_DATE":"2021-01-20","RCS_SIZE":"LARGE","EPHEMERIS_TYPE":"0","CLASSIFICATION_TYPE":"U","NORAD_CAT_ID":"47370","PERIOD":"95.592","DECAY_DATE":null,"RA_OF_ASC_NODE":"216.7839","MEAN_ELEMENT_THEORY":"SGP4","GP_ID":"195758362","ELEMENT_SET_NO":"999","BSTAR":"0.00008108200000","COUNTRY_CODE":"US","REV_AT_EPOCH":"5949","CENTER_NAME":"EARTH","SEMIMAJOR_AXIS":"6925.333","ARG_OF_PERICENTER":"62.7312","TIME_SYSTEM":"UTC","MEAN_MOTION_DDOT":"0.0000000000000","INCLINATION":"53.0526","TLE_LINE2":"2 47370  53.0526 216.7839 0001684  62.7312 297.3848 15.06405206 59497","SITE":"AFETR","MEAN_MOTION_DOT":"0.00000926"},{"RA_OF_ASC_NODE":"256.5466","PERIOD":"95.590","DECAY_DATE":null,"ELEMENT_SET_NO":"999","GP_ID":"195758850","MEAN_ELEMENT_THEORY":"SGP4","BSTAR":"0.00061084000000","REV_AT_EPOCH":"5893","COUNTRY_CODE":"US","SEMIMAJOR_AXIS":"6925.263","CENTER_NAME":"EARTH","TIME_SYSTEM":"UTC","ARG_OF_PERICENTER":"71.4931","INCLINATION":"53.0533","MEAN_MOTION_DDOT":"0.0000000000000","MEAN_MOTION_DOT":"0.00008835","SITE":"AFETR","TLE_LINE2":"2 47371  53.0533 256.5466 0001807  71.4931 288.6255 15.06427837 58932","APOAPSIS":"548.380","OBJECT_TYPE":"PAYLOAD","OBJECT_ID":"2021-005Y","FILE":"3297835","MEAN_MOTION":"15.06427837","REF_FRAME":"TEME","MEAN_ANOMALY":"288.6255","EPOCH":"2022-02-11T19:05:45.349728","OBJECT_NAME":"STARLINK-2088","PERIAPSIS":"545.877","ECCENTRICITY":"0.00018070","TLE_LINE1":"1 47371U 21005Y   22042.79566377  .00008835  00000-0  61084-3 0  9996","LAUNCH_DATE":"2021-01-20","NORAD_CAT_ID":"47371","CLASSIFICATION_TYPE":"U","RCS_SIZE":"LARGE","EPHEMERIS_TYPE":"0"}];
